#dP2024  3 12  0  0  0.00000000      96 __u+U IGS20 EXT  IAC
## 2305 172800.00000000   900.00000000 60381 0.0000000000000
+  119   C06C07C08C09C10C11C12C13C14C16C19C20C21C22C23C24C25
+        C26C27C28C29C30C32C33C34C35C36C37C38C39C40C41C42C43
+        C44C45C46E02E03E04E05E07E08E09E10E11E12E13E14E15E18
+        E19E21E24E25E26E27E30E31E33E34E36G01G02G03G04G05G06
+        G07G08G09G10G11G12G13G14G15G16G17G18G19G20G21G22G23
+        G24G25G26G27G28G29G30G31G32J02J03J04R01R02R03R04R05
+        R07R08R09R11R12R13R14R15R16R17R18R19R20R21R22R24R25
++        11 10 10 13 10 10  9 11  9 10  8  9  9  8  9  9 10
++         8  9  8  8  8  9  9  8 10  8  8  9  9 10 10  9  8
++        10  9  9  8  7  8  7  9  7  7  7  8  8  9  9  7  8
++         9  8  7  8  8  8  7  8  8  8  8  9  8  7  8  8  7
++         8  8  8  7  7  8  7  7  8  7  7  7  9  7  9  8  7
++         8  8  8  8  9  7  7  8  8 10  0  0  8  6  9  8  9
++         8 10  8  7 10  8  7  8  8  7  9  8 11  8  8  8  8
%c M  cc GPS ccc cccc cccc cccc cccc ccccc ccccc ccccc ccccc
%c cc cc ccc ccc cccc cccc cccc cccc ccccc ccccc ccccc ccccc
%f  0.0000000  0.000000000  0.00000000000  0.000000000000000
%f  0.0000000  0.000000000  0.00000000000  0.000000000000000
%i    0    0    0    0      0      0      0      0         0
%i    0    0    0    0      0      0      0      0         0
/* IAC                                ULTRA-RAPID PREDICTION
/* S/V CLOCKS ARE ALIGNED TO GNSS TIME                      
/* G:C1WC2W R:C1PC2P E:C1XC5X C:C2IC6I J:C1CC2S             
/* PCV:IGS20_2290 OL/AL:FES2004  NONE     YN ORB:CoN CLK:CoN
*  2024 03 12 22 45  0.00000000
PC06  -6156.801932  23886.214748  34261.579398    268.944748
PC07 -17388.185194  36702.659801 -11638.581138   -921.345707
PC08  -2044.313694  36891.629457 -20116.298406    130.426141
PC09   2154.696962  26260.447935  33486.584104   -612.394545
PC10 -10890.325478  36954.195986 -17424.520076     47.760461
PC11  -1436.580120 -15455.551566  23257.651125    456.625389
PC12  19117.829864 -11387.046185  16881.049043   -211.742043
PC13   3633.133249  39912.365358 -12466.974080    424.364356
PC14   3923.118136 -24790.005361 -12114.611604    391.964065
PC16 -10377.574055  21995.501039  34704.804312   -392.572590
PC19   3690.163525  20192.129357  18948.320459   -919.765516
PC20  -9867.735822  25626.284896   5090.305949   -250.763364
PC21  18731.367274 -15890.696059  13234.847628   -961.351128
PC22  15928.497101   2858.812899  22733.584124    -77.159590
PC23 -20038.428934 -14361.739209  13076.381046   -776.709297
PC24   2708.021383 -20829.161419 -18404.428287    955.719556
PC25 -13080.072785 -24430.705740  -3389.895763    347.993416
PC26  15706.935560  -5475.732173 -22423.935148   -261.900358
PC27 -25150.547467   7310.886117  -9631.766457    283.799608
PC28 -26973.923929  -3679.170219   6130.483243    216.397923
PC29  12195.117673  13944.435353 -20878.189415    253.738822
PC30 -10028.362554  15410.346284 -20994.740867    -37.377256
PC32 -18610.774544  16027.448493 -13245.621389   -581.975426
PC33  -3767.279353 -20208.334392 -18853.352037   -957.148262
PC34   8346.403015 -15705.404856  21496.323917    388.762460
PC35  27071.594459   2799.785572  -6279.661474    412.645143
PC36  12256.435629  24785.775146   3747.953235     16.145815
PC37 -16054.788897   4664.932535  22350.305861   -944.037817
PC38  -7455.230055  32695.619909 -25426.515930    142.340145
PC39 -16496.120329  19804.749084  33390.232187     -7.541738
PC40 -24893.302218  32497.662468 -10689.734904    -60.500916
PC41 -15592.400651  -3645.886187 -22797.186628   -904.555554
PC42  10926.154387 -25424.760662  -3409.191235   -447.530374
PC43 -11165.149095 -14358.515163  21145.435223     63.883735
PC44  24982.023221  -8207.316583   9379.869723    411.395286
PC45  19948.548707  14323.029003 -13240.572464    -75.262645
PC46  -1967.229505  21245.429347  17955.479332   -131.130967
PE02 -11359.845817  22698.018512  15203.777315    110.695746
PE03 -21064.926661  18644.614689   9230.835500    -99.866123
PE04   2322.944481 -19093.060109 -22486.839914   -348.197811
PE05 -27170.666953   7303.167484  -9191.903139   4728.480512
PE07  17107.045310   8699.638391  22542.427327   -108.569351
PE08  -3185.777886  19202.591943  22307.866883   -237.921096
PE09 -16968.215812  -8638.267425 -22659.719248   -368.213918
PE10 -17200.379926 -20346.901861  12888.597041   -608.817862
PE11 -23954.076762 -17120.934266   2916.370220   3176.612965
PE12  -8490.425445 -20316.990822  19767.462153   -945.703173
PE13  23687.845847  17398.397757  -3581.026545    -20.510278
PE14 -23186.938793  -3338.778995  15641.687447     64.674061
PE15   8023.733065  20168.540483 -20124.782493    -90.867572
PE18  13936.691797  13346.781381 -21281.401162    428.333420
PE19  22581.909476 -17693.835257  -7282.705114   -444.867525
PE21  16795.311973  -3522.682698 -24126.938316   -583.619375
PE24 -12478.125917 -18940.067547  19008.895677   -647.679027
PE25 -16808.319733   3043.592568  24170.227924      2.033970
PE26  25097.040436   3930.292852  15207.893403    394.631800
PE27  12682.567199  18530.889947 -19286.043667   -297.143941
PE30    938.073120  29431.382070  -2958.965488    -88.368274
PE31  -1136.371259 -29415.597975   3125.340765    -18.109996
PE33  12630.907738 -10692.428218  24547.059758      8.917924
PE34 -12099.640792  11101.067123 -24629.968870    -99.617284
PE36 -25241.039017  -4509.561349 -14770.690142   -198.357917
PG01  23675.560284  11693.063242   3897.231118    173.652063
PG02  21880.113057  14326.365259  -4891.255835   -471.294123
PG03  11961.880723  15047.196381  18239.164153    248.330445
PG04  17079.068927   6303.996311  19402.746882    313.403409
PG05  -6535.620423 -24410.014333  -8193.926843   -165.156602
PG06   8935.532081 -11626.958191  22215.425567    370.543322
PG07  23119.765390   3242.883865 -12596.952114    -82.845721
PG08   9614.222435  12152.567437 -21690.404902     50.397229
PG09  23808.947954  -5803.854723  10233.821234    122.449101
PG10 -10737.301835  18076.775119 -15822.793896     -0.109201
PG11  -3529.660838 -18130.483626  19127.755906   -604.708476
PG12 -10864.801546 -16554.087666  17445.224111   -486.573883
PG13    749.951948 -15975.672825 -21368.389482    633.585032
PG14  13376.003236 -14311.629300 -17822.924240    348.918618
PG15 -11011.477881 -11694.811731 -21651.974066    137.002735
PG16    205.253360  26066.384469  -3928.059441   -342.577545
PG17  22920.921040 -13351.513821   2925.142294    713.901777
PG18 -22313.742040  -2320.675611 -14348.360617   -574.251337
PG19  17754.034084 -15944.987885  11075.722978    453.102530
PG20   -726.943807 -26166.561181   5037.403807    384.167055
PG21  19006.124918  16420.424462  -9566.530176    131.599326
PG22  10347.052403 -21429.738601 -11667.911691     16.959045
PG23 -14437.264811   5446.602058 -21569.778091    175.726428
PG24 -20249.504868 -15879.913224  -7802.990527   -445.376418
PG25 -14991.133440  -5403.831655  20944.373606    491.132393
PG26  -4682.289446  24472.132652   8503.771673    180.243559
PG27  -3394.581467  17688.666810 -19654.769362    -11.295123
PG28 -11469.738740  10730.634920  21398.858446   -162.226198
PG29 -23717.027124   2190.318017  11808.943089   -604.964012
PG30  16813.087647  -6635.866503 -19410.668233   -420.602026
PG31  -1863.346617  16124.674349  20737.811875   -227.969516
PG32 -20437.615785  16013.207894   5254.990413   -615.574640
PJ02 -29944.233454  25524.360349  20219.756642     -2.847727
PJ03 -28814.007624  15865.939210 -21768.432053     -0.196201
PJ04      0.000000      0.000000      0.000000     50.695729
PR01  13981.937599 -21082.111368  -3208.475635     79.527245
PR02   3195.380373 -17446.627114 -18309.936871    -22.572904
PR03 -10317.539014  -4306.869289 -22869.766045     96.262350
PR04 -17674.096101  10825.051555 -14825.610451    227.299528
PR05 -15690.792064  20060.461086   1226.151774    128.313266
PR07  10969.646736   3455.270985  22819.494791     77.808769
PR08  17724.227468 -11064.878224  14720.506649    -74.697849
PR09   8179.265730  23900.802460   3852.611480    174.984510
PR11  12265.605954   2104.149894 -22262.496250     31.453613
PR12   3005.826126 -16882.281401 -18871.858174     37.742190
PR13  -6556.531997 -23839.987863  -6301.165334    -45.231142
PR14 -13779.355641 -17096.313752  12971.583530     26.220423
PR15 -11893.880077   -514.581515  22572.134538     81.419838
PR16  -2979.202276  16649.091272  19111.627191     23.971544
PR17 -22473.819633  -7821.441696   9239.106918     68.471154
PR18 -24391.040665   -794.968740  -7308.870728    131.846860
PR19 -15627.896636   5655.157776 -19349.135249   -269.091086
PR20   6497.349926  11284.392888 -21936.120954   -109.695465
PR21  22461.238131   7914.820727  -9113.800496    -84.031202
PR22  24109.818357    755.745616   8350.318492    112.465101
PR24  -7449.945772 -11461.237091  21553.676203    -47.527327
PR25  22179.368962   8785.542264  -9006.218364    -22.358592
EOF
